     2.100          NAVIGATION                              RINEX VERSION / TYPE
fic2rin                                 03/13/2012 00:06:25 PGM / RUN BY / DATE
                                                            END OF HEADER
 7 12  3 12 19 59 44.0  .638766214252D-04  .295585778076D-11  .000000000000D+00
     .000000000000D+00 -.992812500000D+02  .422981904608D-08  .115130267455D+01
    -.498630106449D-05  .513800675981D-02  .678934156895D-05  .515362331009D+04
     .158384000000D+06  .409781932831D-07 -.297789627228D+01  .707805156708D-07
     .975972950699D+00  .254812500000D+03 -.301641278115D+01 -.813498171178D-08
    -.402159608705D-09  .100000000000D+01  .167900000000D+04  .000000000000D+00
     .240000000000D+01  .000000000000D+00 -.107102096081D-07  .000000000000D+00
     .154986000000D+06  .400000000000D+01
28 12  3 12 19 59 44.0  .121892895550D-03  .397903932026D-11  .000000000000D+00
     .200000000000D+01 -.275000000000D+02  .387766152017D-08 -.173887704579D+01
    -.134855508804D-05  .178940164624D-01  .103488564491D-04  .515371207809D+04
     .158384000000D+06  .396743416786D-06 -.189724910896D+01  .199303030968D-06
     .977857878220D+00  .185781250000D+03 -.183463268222D+01 -.754209987302D-08
     .368943939425D-09  .100000000000D+01  .167900000000D+04  .000000000000D+00
     .240000000000D+01  .000000000000D+00 -.107102096081D-07  .200000000000D+01
     .155286000000D+06  .400000000000D+01
32 12  3 12 19 59 44.0 -.419411342591D-03 -.488853402203D-11  .000000000000D+00
     .110000000000D+02  .112843750000D+03  .463983612494D-08  .174175619585D+01
     .574998557568D-05  .118616656400D-01  .902451574802D-05  .515372978783D+04
     .158384000000D+06  .147148966789D-06  .128426509416D+01  .147148966789D-06
     .952079238448D+00  .201031250000D+03 -.604052020711D+00 -.799497587998D-08
    -.142863093678D-11  .100000000000D+01  .167900000000D+04  .000000000000D+00
     .240000000000D+01  .000000000000D+00 -.279396772385D-08  .110000000000D+02
     .157956000000D+06  .400000000000D+01
 3 12  3 12 21 59 44.0  .215037725866D-04  .511590769747D-11  .000000000000D+00
     .200000000000D+01  .256250000000D+01  .536915221817D-08 -.245947378117D+01
     .117346644402D-06  .150669559371D-01  .582821667194D-05  .515370264244D+04
     .165584000000D+06  .149011611938D-06 -.103020271825D+01 -.335276126862D-07
     .930514485926D+00  .248937500000D+03  .117514738051D+01 -.827963059413D-08
     .330013746397D-09  .100000000000D+01  .167900000000D+04  .000000000000D+00
     .240000000000D+01  .000000000000D+00 -.419095158577D-08  .200000000000D+01
     .158406000000D+06  .400000000000D+01
 7 12  3 12 21 59 44.0  .638980418444D-04  .295585778076D-11  .000000000000D+00
     .400000000000D+01 -.918125000000D+02  .426339187310D-08  .220161467642D+01
    -.468082726002D-05  .513848953415D-02  .694580376148D-05  .515362221909D+04
     .165584000000D+06 -.132247805595D-06 -.297795544439D+01  .154599547386D-06
     .975970604179D+00  .255500000000D+03 -.301651476410D+01 -.807319342377D-08
    -.264296723305D-09  .100000000000D+01  .167900000000D+04  .000000000000D+00
     .240000000000D+01  .000000000000D+00 -.107102096081D-07  .400000000000D+01
     .158406000000D+06  .400000000000D+01
 8 12  3 12 21 59 44.0  .800937414169D-06  .113686837722D-12  .000000000000D+00
     .630000000000D+02 -.962500000000D+02  .374087010797D-08  .157961085149D+01
    -.474974513054D-05  .121171808569D-01  .793486833572D-05  .515370345116D+04
     .165584000000D+06  .223517417908D-07 -.289630757111D+01  .230967998505D-06
     .998051169912D+00  .248375000000D+03 -.297767491376D+01 -.785889878325D-08
    -.412517182996D-09  .100000000000D+01  .167900000000D+04  .000000000000D+00
     .240000000000D+01  .000000000000D+00 -.465661287308D-08  .630000000000D+02
     .158406000000D+06  .400000000000D+01
28 12  3 12 21 59 44.0  .121921300888D-03  .397903932026D-11  .000000000000D+00
     .300000000000D+01 -.216562500000D+02  .412124309489D-08 -.688723789550D+00
    -.107288360596D-05  .178943929495D-01  .106580555439D-04  .515371228600D+04
     .165584000000D+06 -.188127160072D-06 -.189730576338D+01  .210478901863D-06
     .977857853350D+00  .185968750000D+03 -.183463174010D+01 -.812998150351D-08
     .378230040514D-09  .100000000000D+01  .167900000000D+04  .000000000000D+00
     .240000000000D+01  .000000000000D+00 -.107102096081D-07  .300000000000D+01
     .158406000000D+06  .400000000000D+01
32 12  3 12 21 59 44.0 -.419446732849D-03 -.488853402203D-11  .000000000000D+00
     .120000000000D+02  .107031250000D+03  .454768942952D-08  .279189013425D+01
     .548362731934D-05  .118610841455D-01  .895187258720D-05  .515373070908D+04
     .165584000000D+06 -.111758708954D-07  .128420712456D+01  .236555933952D-06
     .952079500310D+00  .198593750000D+03 -.604038329261D+00 -.794747390133D-08
     .971469037013D-10  .100000000000D+01  .167900000000D+04  .000000000000D+00
     .240000000000D+01  .000000000000D+00 -.279396772385D-08  .120000000000D+02
     .158406000000D+06  .400000000000D+01
 1 12  3 12 22  0  0.0  .231200829148D-03  .738964445191D-11  .000000000000D+00
     .910000000000D+02 -.174375000000D+02  .450875923649D-08  .224747972563D+01
    -.838190317154D-06  .573815894313D-03  .942312180996D-05  .515365569687D+04
     .165600000000D+06  .279396772385D-07  .144442901838D+00  .372529029846D-08
     .960581965557D+00  .196281250000D+03  .709174696727D+00 -.794568811266D-08
    -.332513850537D-09  .100000000000D+01  .167900000000D+04  .000000000000D+00
     .240000000000D+01  .000000000000D+00  .838190317154D-08  .910000000000D+02
     .158406000000D+06  .400000000000D+01
 2 12  3 12 22  0  0.0  .382551457733D-03  .147792889038D-11  .000000000000D+00
     .700000000000D+02 -.234687500000D+02  .493127683605D-08 -.260153467494D+01
    -.123120844364D-05  .110127986409D-01  .976584851742D-05  .515365969086D+04
     .165600000000D+06 -.763684511185D-07  .132352031668D+00 -.182539224625D-06
     .939142296921D+00  .179375000000D+03 -.284123170441D+01 -.805747848346D-08
    -.320013329840D-09  .100000000000D+01  .167900000000D+04  .000000000000D+00
     .240000000000D+01  .000000000000D+00 -.172294676304D-07  .700000000000D+02
     .158406000000D+06  .400000000000D+01
 4 12  3 12 22  0  0.0  .120959710330D-03  .114823706099D-10  .000000000000D+00
     .180000000000D+02 -.193437500000D+02  .505128183474D-08  .486525990835D+00
    -.856816768646D-06  .100284081418D-01  .948831439018D-05  .515356632233D+04
     .165600000000D+06 -.108033418655D-06  .149344187962D+00  .139698386192D-06
     .938202913334D+00  .185875000000D+03  .840038620329D+00 -.831998941810D-08
    -.438946855327D-09  .100000000000D+01  .167900000000D+04  .000000000000D+00
     .240000000000D+01  .000000000000D+00 -.605359673500D-08  .180000000000D+02
     .158406000000D+06  .400000000000D+01
 5 12  3 12 22  0  0.0 -.293030403554D-03 -.432009983342D-11  .000000000000D+00
     .720000000000D+02  .107750000000D+03  .458876256895D-08 -.657349245280D+00
     .563077628613D-05  .270334933884D-02  .104513019323D-04  .515362558556D+04
     .165600000000D+06  .204890966415D-07  .119519435552D+01 -.279396772385D-07
     .951473657657D+00  .168843750000D+03  .287924777680D+00 -.810498046211D-08
     .810748056625D-10  .100000000000D+01  .167900000000D+04  .000000000000D+00
     .240000000000D+01  .000000000000D+00 -.102445483208D-07  .720000000000D+02
     .158406000000D+06  .400000000000D+01
 6 12  3 12 22  0  0.0  .318987295032D-04  .227373675443D-12  .000000000000D+00
     .290000000000D+02 -.356250000000D+01  .531807866218D-08 -.533604580327D+00
    -.186264514923D-06  .712445576210D-02  .616908073425D-05  .515368983269D+04
     .165600000000D+06 -.651925802231D-07 -.954158867198D+00 -.158324837685D-06
     .937483840822D+00  .250656250000D+03 -.595945883378D+00 -.853928426689D-08
     .198936857947D-09  .100000000000D+01  .167900000000D+04  .000000000000D+00
     .240000000000D+01  .000000000000D+00 -.512227416039D-08  .290000000000D+02
     .158406000000D+06  .400000000000D+01
 9 12  3 12 22  0  0.0  .144336838275D-03  .250111042988D-11  .000000000000D+00
     .510000000000D+02 -.909687500000D+02  .398980904870D-08  .153311556401D+01
    -.509619712830D-05  .172768140910D-01  .593066215515D-05  .515363723564D+04
     .165600000000D+06  .689178705215D-07 -.300423095844D+01 -.376254320145D-06
     .984748184337D+00  .279937500000D+03  .160519459546D+01 -.798568977889D-08
    -.262510934634D-09  .100000000000D+01  .167900000000D+04  .000000000000D+00
     .240000000000D+01  .000000000000D+00 -.558793544769D-08  .510000000000D+02
     .158406000000D+06  .400000000000D+01
10 12  3 12 22  0  0.0 -.320337712765D-04 -.136424205266D-11  .000000000000D+00
     .160000000000D+02  .111281250000D+03  .475912680816D-08 -.293212818382D+00
     .587292015553D-05  .112227052450D-01  .962056219578D-05  .515368801498D+04
     .165600000000D+06  .577419996262D-07  .121719983698D+01  .122934579849D-06
     .946353036225D+00  .188500000000D+03  .746125517523D+00 -.834391898629D-08
     .782175437889D-10  .100000000000D+01  .167900000000D+04  .000000000000D+00
     .240000000000D+01  .000000000000D+00 -.232830643654D-08  .160000000000D+02
     .158406000000D+06  .400000000000D+01
11 12  3 12 22  0  0.0 -.241018831730D-03 -.363797880709D-11  .000000000000D+00
     .730000000000D+02 -.439375000000D+02  .624526014015D-08  .235159676688D+01
    -.238977372646D-05  .127860947978D-01  .729598104954D-05  .515367347908D+04
     .165600000000D+06  .260770320892D-07 -.119823030699D+00 -.227242708206D-06
     .888436333294D+00  .198937500000D+03  .103224277360D+01 -.872643491961D-08
    -.300726812193D-09  .100000000000D+01  .167900000000D+04  .000000000000D+00
     .240000000000D+01  .000000000000D+00 -.116415321827D-07  .730000000000D+02
     .158406000000D+06  .400000000000D+01
